[{"OBJECT_NAME":"STARLINK-3161","OBJECT_ID":"2021-104Q","EPOCH":"2026-03-09T17:27:48.361248","MEAN_MOTION":15.08835383,"ECCENTRICITY":0.00012192,"INCLINATION":53.2168,"RA_OF_ASC_NODE":229.2684,"ARG_OF_PERICENTER":97.5289,"MEAN_ANOMALY":262.5841,"EPHEMERIS_TYPE":0,"CLASSIFICATION_TYPE":"U","NORAD_CAT_ID":49422,"ELEMENT_SET_NO":999,"REV_AT_EPOCH":23862,"BSTAR":1.2726605e-5,"MEAN_MOTION_DOT":-8.5e-7,"MEAN_MOTION_DDOT":0},{"OBJECT_NAME":"MUSAT-2","OBJECT_ID":"2024-043B","EPOCH":"2026-03-09T22:04:01.255008","MEAN_MOTION":15.07177436,"ECCENTRICITY":0.0006495,"INCLINATION":97.8438,"RA_OF_ASC_NODE":205.4399,"ARG_OF_PERICENTER":314.3478,"MEAN_ANOMALY":45.7216,"EPHEMERIS_TYPE":0,"CLASSIFICATION_TYPE":"U","NORAD_CAT_ID":59099,"ELEMENT_SET_NO":999,"REV_AT_EPOCH":11013,"BSTAR":0.00067214198,"MEAN_MOTION_DOT":0.00010059,"MEAN_MOTION_DDOT":0}]
